start=new Date('2023-01-04T00:00:00.000Z').valueOf();
sats=[{"MEAN_MOTION":"15.06392448","GP_ID":"222109707","REV_AT_EPOCH":"15006","PERIAPSIS":"545.761","MEAN_ANOMALY":"320.0243","DECAY_DATE":null,"INCLINATION":"53.0564","OBJECT_ID":"2020-025L","OBJECT_TYPE":"PAYLOAD","TLE_LINE1":"1 45541U 20025L   23003.47189222  .00001121  00000-0  94153-4 0  9992","TIME_SYSTEM":"UTC","BSTAR":"0.00009415300000","MEAN_ELEMENT_THEORY":"SGP4","SITE":"AFETR","NORAD_CAT_ID":"45541","SEMIMAJOR_AXIS":"6925.372","FILE":"3730926","CENTER_NAME":"EARTH","ARG_OF_PERICENTER":"40.0903","MEAN_MOTION_DDOT":"0.0000000000000","RCS_SIZE":"LARGE","APOAPSIS":"548.713","EPHEMERIS_TYPE":"0","MEAN_MOTION_DOT":"0.00001121","OBJECT_NAME":"STARLINK-1369","ECCENTRICITY":"0.00021310","COUNTRY_CODE":"US","LAUNCH_DATE":"2020-04-22","CLASSIFICATION_TYPE":"U","TLE_LINE2":"2 45541  53.0564 279.5393 0002131  40.0903 320.0243 15.06392448150063","PERIOD":"95.593","RA_OF_ASC_NODE":"279.5393","EPOCH":"2023-01-03T11:19:31.487808","ELEMENT_SET_NO":"999","REF_FRAME":"TEME"},{"RA_OF_ASC_NODE":"280.8784","EPOCH":"2023-01-03T04:09:36.119808","REF_FRAME":"TEME","ELEMENT_SET_NO":"999","LAUNCH_DATE":"2020-04-22","CLASSIFICATION_TYPE":"U","TLE_LINE2":"2 45542  53.0546 280.8784 0001803  52.0726 308.0425 15.06398427150021","PERIOD":"95.592","APOAPSIS":"548.467","OBJECT_NAME":"STARLINK-1371","EPHEMERIS_TYPE":"0","MEAN_MOTION_DOT":"0.00007173","ECCENTRICITY":"0.00018030","COUNTRY_CODE":"US","FILE":"3730926","CENTER_NAME":"EARTH","MEAN_MOTION_DDOT":"0.0000000000000","ARG_OF_PERICENTER":"52.0726","RCS_SIZE":"LARGE","NORAD_CAT_ID":"45542","SITE":"AFETR","SEMIMAJOR_AXIS":"6925.353","TIME_SYSTEM":"UTC","TLE_LINE1":"1 45542U 20025M   23003.17333472  .00007173  00000-0  49997-3 0  9996","BSTAR":"0.00049997000000","MEAN_ELEMENT_THEORY":"SGP4","INCLINATION":"53.0546","DECAY_DATE":null,"OBJECT_ID":"2020-025M","OBJECT_TYPE":"PAYLOAD","MEAN_MOTION":"15.06398427","REV_AT_EPOCH":"15002","GP_ID":"222109957","PERIAPSIS":"545.970","MEAN_ANOMALY":"308.0425"},{"ARG_OF_PERICENTER":"94.4083","MEAN_MOTION_DDOT":"0.0000000000000","CENTER_NAME":"EARTH","FILE":"3730926","RCS_SIZE":"LARGE","EPHEMERIS_TYPE":"0","MEAN_MOTION_DOT":"0.00003659","OBJECT_NAME":"STARLINK-1372","APOAPSIS":"548.156","COUNTRY_CODE":"US","ECCENTRICITY":"0.00013510","LAUNCH_DATE":"2020-04-22","CLASSIFICATION_TYPE":"U","PERIOD":"95.592","TLE_LINE2":"2 45543  53.0528 279.5160 0001351  94.4083 265.7060 15.06397710149160","RA_OF_ASC_NODE":"279.5160","EPOCH":"2023-01-03T11:24:49.992768","ELEMENT_SET_NO":"999","REF_FRAME":"TEME","PERIAPSIS":"546.285","GP_ID":"222110187","REV_AT_EPOCH":"14916","MEAN_MOTION":"15.06397710","MEAN_ANOMALY":"265.7060","INCLINATION":"53.0528","DECAY_DATE":null,"OBJECT_TYPE":"PAYLOAD","OBJECT_ID":"2020-025N","TLE_LINE1":"1 45543U 20025N   23003.47557862  .00003659  00000-0  26445-3 0  9999","TIME_SYSTEM":"UTC","MEAN_ELEMENT_THEORY":"SGP4","BSTAR":"0.00026445000000","SITE":"AFETR","NORAD_CAT_ID":"45543","SEMIMAJOR_AXIS":"6925.356"},{"PERIOD":"95.593","TLE_LINE2":"2 45544  53.0559 278.2483 0001647  62.7083 297.4073 15.06389962149510","LAUNCH_DATE":"2020-04-22","CLASSIFICATION_TYPE":"U","REF_FRAME":"TEME","ELEMENT_SET_NO":"999","EPOCH":"2023-01-03T18:13:31.944000","RA_OF_ASC_NODE":"278.2483","RCS_SIZE":"LARGE","MEAN_MOTION_DDOT":"0.0000000000000","ARG_OF_PERICENTER":"62.7083","FILE":"3730755","CENTER_NAME":"EARTH","COUNTRY_CODE":"US","ECCENTRICITY":"0.00016470","OBJECT_NAME":"STARLINK-1373","EPHEMERIS_TYPE":"0","MEAN_MOTION_DOT":"0.00003440","APOAPSIS":"548.385","MEAN_ELEMENT_THEORY":"SGP4","BSTAR":"0.00024981000000","TIME_SYSTEM":"UTC","TLE_LINE1":"1 45544U 20025P   23003.75939750  .00003440  00000-0  24981-3 0  9992","SEMIMAJOR_AXIS":"6925.379","NORAD_CAT_ID":"45544","SITE":"AFETR","MEAN_ANOMALY":"297.4073","PERIAPSIS":"546.104","GP_ID":"222085470","REV_AT_EPOCH":"14951","MEAN_MOTION":"15.06389962","OBJECT_TYPE":"PAYLOAD","OBJECT_ID":"2020-025P","DECAY_DATE":null,"INCLINATION":"53.0559"},{"TIME_SYSTEM":"UTC","TLE_LINE1":"1 45545U 20025Q   23003.18070754  .00012469  00000-0  85441-3 0  9999","BSTAR":"0.00085441000000","MEAN_ELEMENT_THEORY":"SGP4","NORAD_CAT_ID":"45545","SITE":"AFETR","SEMIMAJOR_AXIS":"6925.335","MEAN_MOTION":"15.06404389","GP_ID":"222109208","REV_AT_EPOCH":"15000","PERIAPSIS":"546.175","MEAN_ANOMALY":"253.4389","DECAY_DATE":null,"INCLINATION":"53.0523","OBJECT_ID":"2020-025Q","OBJECT_TYPE":"PAYLOAD","LAUNCH_DATE":"2020-04-22","CLASSIFICATION_TYPE":"U","TLE_LINE2":"2 45545  53.0523 280.8431 0001480 106.6762 253.4389 15.06404389150000","PERIOD":"95.592","RA_OF_ASC_NODE":"280.8431","EPOCH":"2023-01-03T04:20:13.131456","REF_FRAME":"TEME","ELEMENT_SET_NO":"999","FILE":"3730926","CENTER_NAME":"EARTH","MEAN_MOTION_DDOT":"0.0000000000000","ARG_OF_PERICENTER":"106.6762","RCS_SIZE":"LARGE","APOAPSIS":"548.225","OBJECT_NAME":"STARLINK-1374","MEAN_MOTION_DOT":"0.00012469","EPHEMERIS_TYPE":"0","ECCENTRICITY":"0.00014800","COUNTRY_CODE":"US"},{"EPOCH":"2023-01-03T10:58:17.535360","RA_OF_ASC_NODE":"279.5933","REF_FRAME":"TEME","ELEMENT_SET_NO":"999","CLASSIFICATION_TYPE":"U","LAUNCH_DATE":"2020-04-22","TLE_LINE2":"2 45546  53.0533 279.5933 0001606  60.2715 299.8434 15.06407342150060","PERIOD":"95.592","APOAPSIS":"548.303","OBJECT_NAME":"STARLINK-1375","EPHEMERIS_TYPE":"0","MEAN_MOTION_DOT":"0.00007429","ECCENTRICITY":"0.00016060","COUNTRY_CODE":"US","FILE":"3730926","CENTER_NAME":"EARTH","ARG_OF_PERICENTER":"60.2715","MEAN_MOTION_DDOT":"0.0000000000000","RCS_SIZE":"LARGE","NORAD_CAT_ID":"45546","SITE":"AFETR","SEMIMAJOR_AXIS":"6925.326","TIME_SYSTEM":"UTC","TLE_LINE1":"1 45546U 20025R   23003.45714740  .00007429  00000-0  51700-3 0  9991","BSTAR":"0.00051700000000","MEAN_ELEMENT_THEORY":"SGP4","DECAY_DATE":null,"INCLINATION":"53.0533","OBJECT_ID":"2020-025R","OBJECT_TYPE":"PAYLOAD","MEAN_MOTION":"15.06407342","GP_ID":"222110458","REV_AT_EPOCH":"15006","PERIAPSIS":"546.079","MEAN_ANOMALY":"299.8434"},{"MEAN_MOTION_DOT":"0.00006552","EPHEMERIS_TYPE":"0","OBJECT_NAME":"STARLINK-1377","APOAPSIS":"548.257","COUNTRY_CODE":"US","ECCENTRICITY":"0.00014830","MEAN_MOTION_DDOT":"0.0000000000000","ARG_OF_PERICENTER":"69.0271","CENTER_NAME":"EARTH","FILE":"3730926","RCS_SIZE":"LARGE","EPOCH":"2023-01-03T10:52:58.796256","RA_OF_ASC_NODE":"279.6220","ELEMENT_SET_NO":"999","REF_FRAME":"TEME","LAUNCH_DATE":"2020-04-22","CLASSIFICATION_TYPE":"U","PERIOD":"95.592","TLE_LINE2":"2 45547  53.0530 279.6220 0001483  69.0271 291.0877 15.06394791150074","INCLINATION":"53.0530","DECAY_DATE":null,"OBJECT_TYPE":"PAYLOAD","OBJECT_ID":"2020-025S","PERIAPSIS":"546.202","GP_ID":"222110688","REV_AT_EPOCH":"15007","MEAN_MOTION":"15.06394791","MEAN_ANOMALY":"291.0877","SITE":"AFETR","NORAD_CAT_ID":"45547","SEMIMAJOR_AXIS":"6925.365","TLE_LINE1":"1 45547U 20025S   23003.45345829  .00006552  00000-0  45838-3 0  9991","TIME_SYSTEM":"UTC","MEAN_ELEMENT_THEORY":"SGP4","BSTAR":"0.00045838000000"},{"CENTER_NAME":"EARTH","FILE":"3730926","MEAN_MOTION_DDOT":"0.0000000000000","ARG_OF_PERICENTER":"56.6700","RCS_SIZE":"LARGE","APOAPSIS":"548.541","MEAN_MOTION_DOT":"0.00004467","EPHEMERIS_TYPE":"0","OBJECT_NAME":"STARLINK-1378","ECCENTRICITY":"0.00019150","COUNTRY_CODE":"US","CLASSIFICATION_TYPE":"U","LAUNCH_DATE":"2020-04-22","TLE_LINE2":"2 45548  53.0537 279.4954 0001915  56.6700 303.4472 15.06399638150066","PERIOD":"95.592","RA_OF_ASC_NODE":"279.4954","EPOCH":"2023-01-03T11:30:08.184096","ELEMENT_SET_NO":"999","REF_FRAME":"TEME","MEAN_MOTION":"15.06399638","REV_AT_EPOCH":"15006","GP_ID":"222109459","PERIAPSIS":"545.888","MEAN_ANOMALY":"303.4472","INCLINATION":"53.0537","DECAY_DATE":null,"OBJECT_ID":"2020-025T","OBJECT_TYPE":"PAYLOAD","TLE_LINE1":"1 45548U 20025T   23003.47926139  .00004467  00000-0  31860-3 0  9996","TIME_SYSTEM":"UTC","BSTAR":"0.00031860000000","MEAN_ELEMENT_THEORY":"SGP4","SITE":"AFETR","NORAD_CAT_ID":"45548","SEMIMAJOR_AXIS":"6925.350"},{"MEAN_ELEMENT_THEORY":"SGP4","BSTAR":"0.00009939500000","TIME_SYSTEM":"UTC","TLE_LINE1":"1 45550U 20025V   23003.49675131  .00001199  00000-0  99395-4 0  9991","SEMIMAJOR_AXIS":"6925.383","NORAD_CAT_ID":"45550","SITE":"AFETR","MEAN_ANOMALY":"301.2347","PERIAPSIS":"546.032","GP_ID":"222109708","REV_AT_EPOCH":"15006","MEAN_MOTION":"15.06388837","OBJECT_TYPE":"PAYLOAD","OBJECT_ID":"2020-025V","INCLINATION":"53.0558","DECAY_DATE":null,"PERIOD":"95.593","TLE_LINE2":"2 45550  53.0558 279.4087 0001756  58.8814 301.2347 15.06388837150068","LAUNCH_DATE":"2020-04-22","CLASSIFICATION_TYPE":"U","REF_FRAME":"TEME","ELEMENT_SET_NO":"999","RA_OF_ASC_NODE":"279.4087","EPOCH":"2023-01-03T11:55:19.313184","RCS_SIZE":"LARGE","ARG_OF_PERICENTER":"58.8814","MEAN_MOTION_DDOT":"0.0000000000000","FILE":"3730926","CENTER_NAME":"EARTH","COUNTRY_CODE":"US","ECCENTRICITY":"0.00017560","OBJECT_NAME":"STARLINK-1390","EPHEMERIS_TYPE":"0","MEAN_MOTION_DOT":"0.00001199","APOAPSIS":"548.464"},{"APOAPSIS":"548.398","EPHEMERIS_TYPE":"0","MEAN_MOTION_DOT":"0.00003358","OBJECT_NAME":"STARLINK-1294","ECCENTRICITY":"0.00016670","COUNTRY_CODE":"US","CENTER_NAME":"EARTH","FILE":"3730926","MEAN_MOTION_DDOT":"0.0000000000000","ARG_OF_PERICENTER":"66.8006","RCS_SIZE":"LARGE","EPOCH":"2023-01-03T10:23:47.908032","RA_OF_ASC_NODE":"259.7171","ELEMENT_SET_NO":"999","REF_FRAME":"TEME","CLASSIFICATION_TYPE":"U","LAUNCH_DATE":"2020-04-22","TLE_LINE2":"2 45551  53.0546 259.7171 0001667  66.8006 293.3158 15.06390169150347","PERIOD":"95.593","DECAY_DATE":null,"INCLINATION":"53.0546","OBJECT_ID":"2020-025W","OBJECT_TYPE":"PAYLOAD","MEAN_MOTION":"15.06390169","GP_ID":"222109958","REV_AT_EPOCH":"15034","PERIAPSIS":"546.089","MEAN_ANOMALY":"293.3158","SITE":"AFETR","NORAD_CAT_ID":"45551","SEMIMAJOR_AXIS":"6925.379","TLE_LINE1":"1 45551U 20025W   23003.43319338  .00003358  00000-0  24431-3 0  9997","TIME_SYSTEM":"UTC","BSTAR":"0.00024431000000","MEAN_ELEMENT_THEORY":"SGP4"}];
